{
  "updated": "2026-07-22T17:11:22.826Z",
  "capsules": {
    "66664": {
      "name": "SOYUZ-MS 28",
      "kind": "crew",
      "family": "soyuz",
      "phase": "docked",
      "stationKey": "iss",
      "since": "2026-07-03T10:34:14.509Z",
      "distanceKm": 0,
      "altitudeKm": 427,
      "inclinationDeg": 51.631,
      "l1": "1 66664U 25275A   26203.15321183  .00008859  00000+0  16818-3 0  9992",
      "l2": "2 66664  51.6313 127.0562 0006883 324.3803  35.6725 15.49090344576757"
    },
    "67796": {
      "name": "CREW DRAGON 12",
      "kind": "crew",
      "family": "dragon",
      "phase": "docked",
      "stationKey": "iss",
      "since": "2026-07-03T10:34:14.509Z",
      "distanceKm": 0,
      "altitudeKm": 427,
      "inclinationDeg": 51.631,
      "l1": "1 67796U 26031A   26203.15321183  .00008859  00000+0  16818-3 0  9990",
      "l2": "2 67796  51.6313 127.0562 0006883 324.3803  35.6725 15.49090344576866"
    },
    "68319": {
      "name": "PROGRESS-MS 33",
      "kind": "cargo",
      "family": "progress",
      "phase": "docked",
      "stationKey": "iss",
      "since": "2026-07-10T20:18:26.588Z",
      "distanceKm": 0,
      "altitudeKm": 427,
      "inclinationDeg": 51.631,
      "l1": "1 68319U 26058A   26203.15321183  .00008859  00000+0  16818-3 0  9991",
      "l2": "2 68319  51.6313 127.0562 0006883 324.3803  35.6725 15.49090344576790"
    },
    "68689": {
      "name": "CYGNUS NG-24",
      "kind": "cargo",
      "family": "cygnus",
      "phase": "docked",
      "stationKey": "iss",
      "since": "2026-07-10T20:18:26.588Z",
      "distanceKm": 0,
      "altitudeKm": 427,
      "inclinationDeg": 51.631,
      "l1": "1 68689U 26079A   26203.15321183  .00008859  00000+0  16818-3 0  9994",
      "l2": "2 68689  51.6313 127.0562 0006883 324.3803  35.6725 15.49090344576981"
    },
    "68837": {
      "name": "PROGRESS-MS 34",
      "kind": "cargo",
      "family": "progress",
      "phase": "docked",
      "stationKey": "iss",
      "since": "2026-07-10T20:18:26.588Z",
      "distanceKm": 0,
      "altitudeKm": 427,
      "inclinationDeg": 51.631,
      "l1": "1 68837U 26093A   26203.15321183  .00008859  00000+0  16818-3 0  9995",
      "l2": "2 68837  51.6313 127.0562 0006883 324.3803  35.6725 15.49090344577022"
    },
    "69049": {
      "name": "TIANZHOU-10",
      "kind": "cargo",
      "family": "tianzhou",
      "phase": "docked",
      "stationKey": "css",
      "since": "2026-07-10T20:18:26.588Z",
      "distanceKm": 0,
      "altitudeKm": 402.1,
      "inclinationDeg": 41.467,
      "l1": "1 69049U 26102A   26203.00893070  .00009270  00000+0  12326-3 0  9993",
      "l2": "2 69049  41.4674 110.5280 0001463 308.5708  51.4998 15.58239510298271"
    },
    "69180": {
      "name": "SHENZHOU-23 (SZ-23)",
      "kind": "crew",
      "family": "shenzhou",
      "phase": "docked",
      "stationKey": "css",
      "since": "2026-07-03T10:34:14.509Z",
      "distanceKm": 0,
      "altitudeKm": 402.1,
      "inclinationDeg": 41.467,
      "l1": "1 69180U 26113A   26203.00893083  .00009510  00000+0  12634-3 0  9994",
      "l2": "2 69180  41.4674 110.5280 0001465 308.5381  51.5326 15.58239681298181"
    }
  },
  "events": [
    {
      "id": "68319",
      "name": "PROGRESS-MS 33",
      "kind": "cargo",
      "family": "progress",
      "stationKey": "iss",
      "event": "launched",
      "at": "2026-07-10T20:18:26.588Z"
    },
    {
      "id": "68689",
      "name": "CYGNUS NG-24",
      "kind": "cargo",
      "family": "cygnus",
      "stationKey": "iss",
      "event": "launched",
      "at": "2026-07-10T20:18:26.588Z"
    },
    {
      "id": "68837",
      "name": "PROGRESS-MS 34",
      "kind": "cargo",
      "family": "progress",
      "stationKey": "iss",
      "event": "launched",
      "at": "2026-07-10T20:18:26.588Z"
    },
    {
      "id": "69049",
      "name": "TIANZHOU-10",
      "kind": "cargo",
      "family": "tianzhou",
      "stationKey": "css",
      "event": "launched",
      "at": "2026-07-10T20:18:26.588Z"
    }
  ]
}
